{
    "links": {
        "self": "http://www.neowsapp.com/rest/v1/neo/3805272?api_key=iIulBulltgU6a56xZRHN4H3l9WmuAYTsLGpBGhQ2"
    },
    "id": "3805272",
    "neo_reference_id": "3805272",
    "name": "(2018 HD1)",
    "designation": "2018 HD1",
    "nasa_jpl_url": "http://ssd.jpl.nasa.gov/sbdb.cgi?sstr=3805272",
    "absolute_magnitude_h": 27.4,
    "estimated_diameter": {
        "kilometers": {
            "estimated_diameter_min": 0.0088014652,
            "estimated_diameter_max": 0.0196806745
        },
        "meters": {
            "estimated_diameter_min": 8.801465209,
            "estimated_diameter_max": 19.6806745089
        },
        "miles": {
            "estimated_diameter_min": 0.0054689752,
            "estimated_diameter_max": 0.0122290004
        },
        "feet": {
            "estimated_diameter_min": 28.8761991163,
            "estimated_diameter_max": 64.5691441559
        }
    },
    "is_potentially_hazardous_asteroid": false,
    "close_approach_data": [
        {
            "close_approach_date": "2018-04-16",
            "close_approach_date_full": "2018-Apr-16 22:12",
            "epoch_date_close_approach": 1523916720000,
            "relative_velocity": {
                "kilometers_per_second": "8.9318172159",
                "kilometers_per_hour": "32154.5419771842",
                "miles_per_hour": "19979.581930212"
            },
            "miss_distance": {
                "astronomical": "0.0145483264",
                "lunar": "5.6592989696",
                "kilometers": "2176398.641504768",
                "miles": "1352351.4064630784"
            },
            "orbiting_body": "Earth"
        },
        {
            "close_approach_date": "2081-01-02",
            "close_approach_date_full": "2081-Jan-02 14:38",
            "epoch_date_close_approach": 3503054280000,
            "relative_velocity": {
                "kilometers_per_second": "24.0578128195",
                "kilometers_per_hour": "86608.1261502475",
                "miles_per_hour": "53814.9214959691"
            },
            "miss_distance": {
                "astronomical": "0.4997511171",
                "lunar": "194.4031845519",
                "kilometers": "74761702.648280577",
                "miles": "46454767.8894308826"
            },
            "orbiting_body": "Earth"
        }
    ],
    "orbital_data": {
        "orbit_id": "1",
        "orbit_determination_date": "2018-04-22 10:42:06",
        "first_observation_date": "2018-04-21",
        "last_observation_date": "2018-04-22",
        "data_arc_in_days": 1,
        "observations_used": 18,
        "orbit_uncertainty": "8",
        "minimum_orbit_intersection": ".0116167",
        "jupiter_tisserand_invariant": "3.779",
        "epoch_osculation": "2458230.5",
        "eccentricity": ".5021837418918842",
        "semi_major_axis": "1.904075439797653",
        "inclination": "1.497858572086892",
        "ascending_node_longitude": "50.7015407937843",
        "orbital_period": "959.6760436986215",
        "perihelion_distance": ".9478797105956324",
        "perihelion_argument": "120.0928564681561",
        "aphelion_distance": "2.860271168999673",
        "perihelion_time": "2458197.172059256452",
        "mean_anomaly": "12.50219670112467",
        "mean_motion": ".3751265881479637",
        "equinox": "J2000",
        "orbit_class": {
            "orbit_class_type": "APO",
            "orbit_class_description": "Near-Earth asteroid orbits which cross the Earth’s orbit similar to that of 1862 Apollo",
            "orbit_class_range": "a (semi-major axis) > 1.0 AU; q (perihelion) < 1.017 AU"
        }
    },
    "is_sentry_object": false
}